CCSDS_OMM_VERS = 2.0
CREATION_DATE  = 
ORIGINATOR     = 

OBJECT_NAME    = IDEFIX & ARIANE 42P R/B
OBJECT_ID      = 2002-021B
CENTER_NAME    = EARTH
REF_FRAME      = TEME
TIME_SYSTEM    = UTC
MEAN_ELEMENT_THEORY = SGP/SGP4

EPOCH          = 2026-02-04T20:13:53.171328
MEAN_MOTION    = 14.31001544
ECCENTRICITY   = .0010733
INCLINATION    = 98.5838
RA_OF_ASC_NODE = 334.8490
ARG_OF_PERICENTER = 286.6680
MEAN_ANOMALY   = 73.3324

EPHEMERIS_TYPE = 0
CLASSIFICATION_TYPE = U
NORAD_CAT_ID   = 27422
ELEMENT_SET_NO = 999
REV_AT_EPOCH   = 23932
BSTAR          = .1675E-3
MEAN_MOTION_DOT = .397E-5
MEAN_MOTION_DDOT = 0

CCSDS_OMM_VERS = 2.0
CREATION_DATE  = 
ORIGINATOR     = 

OBJECT_NAME    = AQUA
OBJECT_ID      = 2002-022A
CENTER_NAME    = EARTH
REF_FRAME      = TEME
TIME_SYSTEM    = UTC
MEAN_ELEMENT_THEORY = SGP/SGP4

EPOCH          = 2026-02-04T19:56:47.868576
MEAN_MOTION    = 14.61892610
ECCENTRICITY   = .0001631
INCLINATION    = 98.4117
RA_OF_ASC_NODE = 2.6132
ARG_OF_PERICENTER = 56.0598
MEAN_ANOMALY   = 0.7101

EPHEMERIS_TYPE = 0
CLASSIFICATION_TYPE = U
NORAD_CAT_ID   = 27424
ELEMENT_SET_NO = 999
REV_AT_EPOCH   = 26393
BSTAR          = .28017E-3
MEAN_MOTION_DOT = .1352E-4
MEAN_MOTION_DDOT = 0

CCSDS_OMM_VERS = 2.0
CREATION_DATE  = 
ORIGINATOR     = 

OBJECT_NAME    = CZ-4B R/B
OBJECT_ID      = 2002-024C
CENTER_NAME    = EARTH
REF_FRAME      = TEME
TIME_SYSTEM    = UTC
MEAN_ELEMENT_THEORY = SGP/SGP4

EPOCH          = 2026-02-04T16:42:54.601920
MEAN_MOTION    = 14.14541565
ECCENTRICITY   = .0051093
INCLINATION    = 98.8909
RA_OF_ASC_NODE = 89.2578
ARG_OF_PERICENTER = 116.3467
MEAN_ANOMALY   = 355.9834

EPHEMERIS_TYPE = 0
CLASSIFICATION_TYPE = U
NORAD_CAT_ID   = 27432
ELEMENT_SET_NO = 999
REV_AT_EPOCH   = 22457
BSTAR          = .57536E-4
MEAN_MOTION_DOT = .68E-6
MEAN_MOTION_DDOT = 0

CCSDS_OMM_VERS = 2.0
CREATION_DATE  = 
ORIGINATOR     = 

OBJECT_NAME    = MIDORI II (ADEOS-II)
OBJECT_ID      = 2002-056A
CENTER_NAME    = EARTH
REF_FRAME      = TEME
TIME_SYSTEM    = UTC
MEAN_ELEMENT_THEORY = SGP/SGP4

EPOCH          = 2026-02-04T19:56:52.807200
MEAN_MOTION    = 14.29259062
ECCENTRICITY   = .0002152
INCLINATION    = 98.7713
RA_OF_ASC_NODE = 354.0946
ARG_OF_PERICENTER = 89.1701
MEAN_ANOMALY   = 270.9727

EPHEMERIS_TYPE = 0
CLASSIFICATION_TYPE = U
NORAD_CAT_ID   = 27597
ELEMENT_SET_NO = 999
REV_AT_EPOCH   = 20560
BSTAR          = .18509E-3
MEAN_MOTION_DOT = .425E-5
MEAN_MOTION_DDOT = 0

CCSDS_OMM_VERS = 2.0
CREATION_DATE  = 
ORIGINATOR     = 

OBJECT_NAME    = H-2A R/B
OBJECT_ID      = 2002-056E
CENTER_NAME    = EARTH
REF_FRAME      = TEME
TIME_SYSTEM    = UTC
MEAN_ELEMENT_THEORY = SGP/SGP4

EPOCH          = 2026-02-04T20:05:16.810368
MEAN_MOTION    = 14.33736317
ECCENTRICITY   = .0068997
INCLINATION    = 98.3143
RA_OF_ASC_NODE = 357.4655
ARG_OF_PERICENTER = 259.4325
MEAN_ANOMALY   = 159.5560

EPHEMERIS_TYPE = 0
CLASSIFICATION_TYPE = U
NORAD_CAT_ID   = 27601
ELEMENT_SET_NO = 999
REV_AT_EPOCH   = 20940
BSTAR          = .16237E-3
MEAN_MOTION_DOT = .421E-5
MEAN_MOTION_DDOT = 0

CCSDS_OMM_VERS = 2.0
CREATION_DATE  = 
ORIGINATOR     = 

OBJECT_NAME    = CZ-4B R/B
OBJECT_ID      = 2003-049C
CENTER_NAME    = EARTH
REF_FRAME      = TEME
TIME_SYSTEM    = UTC
MEAN_ELEMENT_THEORY = SGP/SGP4

EPOCH          = 2026-02-04T13:56:36.838752
MEAN_MOTION    = 14.54982141
ECCENTRICITY   = .0047688
INCLINATION    = 98.6841
RA_OF_ASC_NODE = 29.1968
ARG_OF_PERICENTER = 334.0833
MEAN_ANOMALY   = 25.7975

EPHEMERIS_TYPE = 0
CLASSIFICATION_TYPE = U
NORAD_CAT_ID   = 28059
ELEMENT_SET_NO = 999
REV_AT_EPOCH   = 18178
BSTAR          = .15922E-3
MEAN_MOTION_DOT = .644E-5
MEAN_MOTION_DDOT = 0

CCSDS_OMM_VERS = 2.0
CREATION_DATE  = 
ORIGINATOR     = 

OBJECT_NAME    = CZ-2C R/B
OBJECT_ID      = 2004-012C
CENTER_NAME    = EARTH
REF_FRAME      = TEME
TIME_SYSTEM    = UTC
MEAN_ELEMENT_THEORY = SGP/SGP4

EPOCH          = 2026-02-04T16:37:03.856800
MEAN_MOTION    = 15.60749522
ECCENTRICITY   = .0016388
INCLINATION    = 97.7307
RA_OF_ASC_NODE = 97.9462
ARG_OF_PERICENTER = 74.0189
MEAN_ANOMALY   = 286.2871

EPHEMERIS_TYPE = 0
CLASSIFICATION_TYPE = U
NORAD_CAT_ID   = 28222
ELEMENT_SET_NO = 999
REV_AT_EPOCH   = 19912
BSTAR          = .61766E-3
MEAN_MOTION_DOT = .51788E-3
MEAN_MOTION_DDOT = 0

CCSDS_OMM_VERS = 2.0
CREATION_DATE  = 
ORIGINATOR     = 

OBJECT_NAME    = SL-16 R/B
OBJECT_ID      = 2004-021B
CENTER_NAME    = EARTH
REF_FRAME      = TEME
TIME_SYSTEM    = UTC
MEAN_ELEMENT_THEORY = SGP/SGP4

EPOCH          = 2026-02-04T17:12:33.522624
MEAN_MOTION    = 14.14589268
ECCENTRICITY   = .0002826
INCLINATION    = 71.0006
RA_OF_ASC_NODE = 301.6911
ARG_OF_PERICENTER = 92.1939
MEAN_ANOMALY   = 267.9507

EPHEMERIS_TYPE = 0
CLASSIFICATION_TYPE = U
NORAD_CAT_ID   = 28353
ELEMENT_SET_NO = 999
REV_AT_EPOCH   = 11817
BSTAR          = .88927E-5
MEAN_MOTION_DOT = -.31E-6
MEAN_MOTION_DDOT = 0

CCSDS_OMM_VERS = 2.0
CREATION_DATE  = 
ORIGINATOR     = 

OBJECT_NAME    = CZ-4B R/B
OBJECT_ID      = 2004-035C
CENTER_NAME    = EARTH
REF_FRAME      = TEME
TIME_SYSTEM    = UTC
MEAN_ELEMENT_THEORY = SGP/SGP4

EPOCH          = 2026-02-04T17:21:53.136288
MEAN_MOTION    = 15.28439965
ECCENTRICITY   = .0034312
INCLINATION    = 97.3543
RA_OF_ASC_NODE = 70.3685
ARG_OF_PERICENTER = 86.0625
MEAN_ANOMALY   = 274.4536

EPHEMERIS_TYPE = 0
CLASSIFICATION_TYPE = U
NORAD_CAT_ID   = 28415
ELEMENT_SET_NO = 999
REV_AT_EPOCH   = 17487
BSTAR          = .33245E-3
MEAN_MOTION_DOT = .9293E-4
MEAN_MOTION_DDOT = 0

CCSDS_OMM_VERS = 2.0
CREATION_DATE  = 
ORIGINATOR     = 

OBJECT_NAME    = CZ-2C R/B
OBJECT_ID      = 2004-046B
CENTER_NAME    = EARTH
REF_FRAME      = TEME
TIME_SYSTEM    = UTC
MEAN_ELEMENT_THEORY = SGP/SGP4

EPOCH          = 2026-02-04T17:45:34.079328
MEAN_MOTION    = 14.26979839
ECCENTRICITY   = .0138209
INCLINATION    = 98.1998
RA_OF_ASC_NODE = 312.7699
ARG_OF_PERICENTER = 252.2198
MEAN_ANOMALY   = 106.3863

EPHEMERIS_TYPE = 0
CLASSIFICATION_TYPE = U
NORAD_CAT_ID   = 28480
ELEMENT_SET_NO = 999
REV_AT_EPOCH   = 10380
BSTAR          = .90188E-4
MEAN_MOTION_DOT = .2E-5
MEAN_MOTION_DDOT = 0

CCSDS_OMM_VERS = 2.0
CREATION_DATE  = 
ORIGINATOR     = 

OBJECT_NAME    = ARIANE 5 R/B
OBJECT_ID      = 2004-049H
CENTER_NAME    = EARTH
REF_FRAME      = TEME
TIME_SYSTEM    = UTC
MEAN_ELEMENT_THEORY = SGP/SGP4

EPOCH          = 2026-02-04T10:03:44.451936
MEAN_MOTION    = 14.85193708
ECCENTRICITY   = .0085492
INCLINATION    = 98.2573
RA_OF_ASC_NODE = 202.6442
ARG_OF_PERICENTER = 98.8188
MEAN_ANOMALY   = 262.2718

EPHEMERIS_TYPE = 0
CLASSIFICATION_TYPE = U
NORAD_CAT_ID   = 28499
ELEMENT_SET_NO = 999
REV_AT_EPOCH   = 14085
BSTAR          = .14505E-3
MEAN_MOTION_DOT = .1263E-4
MEAN_MOTION_DDOT = 0

CCSDS_OMM_VERS = 2.0
CREATION_DATE  = 
ORIGINATOR     = 

OBJECT_NAME    = CZ-2D R/B
OBJECT_ID      = 2005-024B
CENTER_NAME    = EARTH
REF_FRAME      = TEME
TIME_SYSTEM    = UTC
MEAN_ELEMENT_THEORY = SGP/SGP4

EPOCH          = 2026-02-04T12:24:45.573696
MEAN_MOTION    = 15.57230704
ECCENTRICITY   = .0007089
INCLINATION    = 97.3615
RA_OF_ASC_NODE = 49.5216
ARG_OF_PERICENTER = 126.3171
MEAN_ANOMALY   = 233.8739

EPHEMERIS_TYPE = 0
CLASSIFICATION_TYPE = U
NORAD_CAT_ID   = 28738
ELEMENT_SET_NO = 999
REV_AT_EPOCH   = 13461
BSTAR          = .54129E-3
MEAN_MOTION_DOT = .39466E-3
MEAN_MOTION_DDOT = 0

