IDEFIX & ARIANE 42P R/B 
1 27422U 02021B   26035.84297652  .00000397  00000+0  16750-3 0  9991
2 27422  98.5838 334.8490 0010733 286.6680  73.3324 14.31001544239325
AQUA                    
1 27424U 02022A   26035.83110959  .00001352  00000+0  28017-3 0  9998
2 27424  98.4117   2.6132 0001631  56.0598   0.7101 14.61892610263939
CZ-4B R/B               
1 27432U 02024C   26035.69646530  .00000068  00000+0  57536-4 0  9994
2 27432  98.8909  89.2578 0051093 116.3467 355.9834 14.14541565224571
MIDORI II (ADEOS-II)    
1 27597U 02056A   26035.83116675  .00000425  00000+0  18509-3 0  9992
2 27597  98.7713 354.0946 0002152  89.1701 270.9727 14.29259062205601
H-2A R/B                
1 27601U 02056E   26035.83700012  .00000421  00000+0  16237-3 0  9994
2 27601  98.3143 357.4655 0068997 259.4325 159.5560 14.33736317209404
CZ-4B R/B               
1 28059U 03049C   26035.58098193  .00000644  00000+0  15922-3 0  9994
2 28059  98.6841  29.1968 0047688 334.0833  25.7975 14.54982141181783
CZ-2C R/B               
1 28222U 04012C   26035.69240575  .00051788  00000+0  61766-3 0  9994
2 28222  97.7307  97.9462 0016388  74.0189 286.2871 15.60749522199120
SL-16 R/B               
1 28353U 04021B   26035.71705466 -.00000031  00000+0  88927-5 0  9993
2 28353  71.0006 301.6911 0002826  92.1939 267.9507 14.14589268118171
CZ-4B R/B               
1 28415U 04035C   26035.72353167  .00009293  00000+0  33245-3 0  9994
2 28415  97.3543  70.3685 0034312  86.0625 274.4536 15.28439965174872
CZ-2C R/B               
1 28480U 04046B   26035.73997777  .00000200  00000+0  90188-4 0  9999
2 28480  98.1998 312.7699 0138209 252.2198 106.3863 14.26979839103804
ARIANE 5 R/B            
1 28499U 04049H   26035.41926449  .00001263  00000+0  14505-3 0  9993
2 28499  98.2573 202.6442 0085492  98.8188 262.2718 14.85193708140850
CZ-2D R/B               
1 28738U 05024B   26035.51719414  .00039466  00000+0  54129-3 0  9998
2 28738  97.3615  49.5216 0007089 126.3171 233.8739 15.57230704134617
